{
  "type": "FeatureCollection",
  "features": [
    {
      "type": "Feature",
      "properties": {
        "norad_id": 66989,
        "name": "CZ-4B R/B",
        "group": "last-30-days",
        "lat": 66.69149787300307,
        "lon": -104.98848446859718,
        "alt_km": 415.15256442338614,
        "timestamp": "2025-12-17T10:52:53.102922+00:00",
        "meta_object_name": "CZ-4B R/B",
        "meta_object_id": "2025-289B",
        "meta_epoch": "2025-12-16T17:33:52.394688",
        "meta_mean_motion": 15.68199823,
        "meta_eccentricity": 0.01460117,
        "meta_inclination": 97.5268,
        "meta_ra_of_asc_node": 56.3647,
        "meta_arg_of_pericenter": 347.8669,
        "meta_mean_anomaly": 11.9088,
        "meta_ephemeris_type": 0,
        "meta_classification_type": "U",
        "meta_norad_cat_id": 66989,
        "meta_element_set_no": 999,
        "meta_rev_at_epoch": 119,
        "meta_bstar": 0.00057740752,
        "meta_mean_motion_dot": 0.00118047,
        "meta_mean_motion_ddot": 6.198974e-06,
        "tle_line1": "1 66989U 25289B   25350.73185642  .00118047  61990-5  57741-3 0  9993",
        "tle_line2": "2 66989  97.5268  56.3647 0146011 347.8669  11.9088 15.68199823  1194"
      },
      "geometry": {
        "type": "Point",
        "coordinates": [
          -104.98848446859718,
          66.69149787300307
        ]
      }
    },
    {
      "type": "Feature",
      "properties": {
        "norad_id": 66990,
        "name": "TJS-22",
        "group": "last-30-days",
        "lat": 18.776488293574513,
        "lon": 7.423571059268512,
        "alt_km": 13069.936849370908,
        "timestamp": "2025-12-17T10:52:53.102934+00:00",
        "meta_object_name": "TJS-22",
        "meta_object_id": "2025-290A",
        "meta_epoch": "2025-12-10T07:11:32.845344",
        "meta_mean_motion": 2.15443148,
        "meta_eccentricity": 0.6664534,
        "meta_inclination": 20.1261,
        "meta_ra_of_asc_node": 301.1464,
        "meta_arg_of_pericenter": 180.6877,
        "meta_mean_anomaly": 177.6237,
        "meta_ephemeris_type": 0,
        "meta_classification_type": "U",
        "meta_norad_cat_id": 66990,
        "meta_element_set_no": 999,
        "meta_rev_at_epoch": 3,
        "meta_bstar": 0.079788243,
        "meta_mean_motion_dot": -3.8e-07,
        "meta_mean_motion_ddot": 0,
        "tle_line1": "1 66990U 25290A   25344.29968571 -.00000038  00000+0  79788-1 0  9994",
        "tle_line2": "2 66990  20.1261 301.1464 6664534 180.6877 177.6237  2.15443148    32"
      },
      "geometry": {
        "type": "Point",
        "coordinates": [
          7.423571059268512,
          18.776488293574513
        ]
      }
    },
    {
      "type": "Feature",
      "properties": {
        "norad_id": 66991,
        "name": "CZ-3B R/B",
        "group": "last-30-days",
        "lat": 5.454684086139407,
        "lon": -50.089666847088694,
        "alt_km": 33438.162498366815,
        "timestamp": "2025-12-17T10:52:53.102946+00:00",
        "meta_object_name": "CZ-3B R/B",
        "meta_object_id": "2025-290B",
        "meta_epoch": "2025-12-15T17:23:33.043200",
        "meta_mean_motion": 2.38388611,
        "meta_eccentricity": 0.7240884,
        "meta_inclination": 28.4636,
        "meta_ra_of_asc_node": 300.4666,
        "meta_arg_of_pericenter": 182.7002,
        "meta_mean_anomaly": 168.625,
        "meta_ephemeris_type": 0,
        "meta_classification_type": "U",
        "meta_norad_cat_id": 66991,
        "meta_element_set_no": 999,
        "meta_rev_at_epoch": 16,
        "meta_bstar": 0.00075879,
        "meta_mean_motion_dot": 0.00057911,
        "meta_mean_motion_ddot": -2.0514e-07,
        "tle_line1": "1 66991U 25290B   25349.72468800  .00057911 -20514-6  75879-3 0  9998",
        "tle_line2": "2 66991  28.4636 300.4666 7240884 182.7002 168.6250  2.38388611   165"
      },
      "geometry": {
        "type": "Point",
        "coordinates": [
          -50.089666847088694,
          5.454684086139407
        ]
      }
    },
    {
      "type": "Feature",
      "properties": {
        "norad_id": 66993,
        "name": "2025-292A",
        "group": "last-30-days",
        "lat": -48.73079428089617,
        "lon": 72.7734962303126,
        "alt_km": 554.4145383019923,
        "timestamp": "2025-12-17T10:52:53.102957+00:00",
        "meta_object_name": "2025-292A",
        "meta_object_id": "2025-292A",
        "meta_epoch": "2025-12-16T19:08:17.870784",
        "meta_mean_motion": 15.0452441,
        "meta_eccentricity": 0.00137835,
        "meta_inclination": 97.6536,
        "meta_ra_of_asc_node": 63.3095,
        "meta_arg_of_pericenter": 257.5747,
        "meta_mean_anomaly": 102.3937,
        "meta_ephemeris_type": 0,
        "meta_classification_type": "U",
        "meta_norad_cat_id": 66993,
        "meta_element_set_no": 999,
        "meta_rev_at_epoch": 100,
        "meta_bstar": 0.00024707184,
        "meta_mean_motion_dot": 3.406e-05,
        "meta_mean_motion_ddot": 0,
        "tle_line1": "1 66993U 25292A   25350.79742906  .00003406  00000+0  24707-3 0  9997",
        "tle_line2": "2 66993  97.6536  63.3095 0013783 257.5747 102.3937 15.04524410  1008"
      },
      "geometry": {
        "type": "Point",
        "coordinates": [
          72.7734962303126,
          -48.73079428089617
        ]
      }
    },
    {
      "type": "Feature",
      "properties": {
        "norad_id": 66994,
        "name": "2025-292B",
        "group": "last-30-days",
        "lat": -47.54620398055056,
        "lon": 72.40977501160876,
        "alt_km": 554.0750005158252,
        "timestamp": "2025-12-17T10:52:53.102967+00:00",
        "meta_object_name": "2025-292B",
        "meta_object_id": "2025-292B",
        "meta_epoch": "2025-12-16T17:32:14.053344",
        "meta_mean_motion": 15.04568038,
        "meta_eccentricity": 0.00138285,
        "meta_inclination": 97.6528,
        "meta_ra_of_asc_node": 63.2425,
        "meta_arg_of_pericenter": 260.0817,
        "meta_mean_anomaly": 99.8848,
        "meta_ephemeris_type": 0,
        "meta_classification_type": "U",
        "meta_norad_cat_id": 66994,
        "meta_element_set_no": 999,
        "meta_rev_at_epoch": 99,
        "meta_bstar": 0.00028326555,
        "meta_mean_motion_dot": 3.919e-05,
        "meta_mean_motion_ddot": 0,
        "tle_line1": "1 66994U 25292B   25350.73071821  .00003919  00000+0  28327-3 0  9994",
        "tle_line2": "2 66994  97.6528  63.2425 0013828 260.0817  99.8848 15.04568038   995"
      },
      "geometry": {
        "type": "Point",
        "coordinates": [
          72.40977501160876,
          -47.54620398055056
        ]
      }
    },
    {
      "type": "Feature",
      "properties": {
        "norad_id": 66995,
        "name": "2025-292C",
        "group": "last-30-days",
        "lat": -47.355938634953965,
        "lon": 72.35560839350423,
        "alt_km": 554.2640815495961,
        "timestamp": "2025-12-17T10:52:53.102977+00:00",
        "meta_object_name": "2025-292C",
        "meta_object_id": "2025-292C",
        "meta_epoch": "2025-12-16T22:19:29.893440",
        "meta_mean_motion": 15.04587621,
        "meta_eccentricity": 0.00138381,
        "meta_inclination": 97.6535,
        "meta_ra_of_asc_node": 63.4416,
        "meta_arg_of_pericenter": 257.7327,
        "meta_mean_anomaly": 102.2349,
        "meta_ephemeris_type": 0,
        "meta_classification_type": "U",
        "meta_norad_cat_id": 66995,
        "meta_element_set_no": 999,
        "meta_rev_at_epoch": 102,
        "meta_bstar": 0.0003222694,
        "meta_mean_motion_dot": 4.47e-05,
        "meta_mean_motion_ddot": 0,
        "tle_line1": "1 66995U 25292C   25350.93020710  .00004470  00000+0  32227-3 0  9995",
        "tle_line2": "2 66995  97.6535  63.4416 0013838 257.7327 102.2349 15.04587621  1025"
      },
      "geometry": {
        "type": "Point",
        "coordinates": [
          72.35560839350423,
          -47.355938634953965
        ]
      }
    },
    {
      "type": "Feature",
      "properties": {
        "norad_id": 66996,
        "name": "2025-292D",
        "group": "last-30-days",
        "lat": -46.107017154188064,
        "lon": 71.99375583559308,
        "alt_km": 554.2302722932909,
        "timestamp": "2025-12-17T10:52:53.102987+00:00",
        "meta_object_name": "2025-292D",
        "meta_object_id": "2025-292D",
        "meta_epoch": "2025-12-16T19:07:38.827488",
        "meta_mean_motion": 15.0462476,
        "meta_eccentricity": 0.00130199,
        "meta_inclination": 97.6529,
        "meta_ra_of_asc_node": 63.3097,
        "meta_arg_of_pericenter": 260.9745,
        "meta_mean_anomaly": 99.0007,
        "meta_ephemeris_type": 0,
        "meta_classification_type": "U",
        "meta_norad_cat_id": 66996,
        "meta_element_set_no": 999,
        "meta_rev_at_epoch": 100,
        "meta_bstar": 0.00021639716,
        "meta_mean_motion_dot": 2.983e-05,
        "meta_mean_motion_ddot": 0,
        "tle_line1": "1 66996U 25292D   25350.79697717  .00002983  00000+0  21640-3 0  9991",
        "tle_line2": "2 66996  97.6529  63.3097 0013019 260.9745  99.0007 15.04624760  1002"
      },
      "geometry": {
        "type": "Point",
        "coordinates": [
          71.99375583559308,
          -46.107017154188064
        ]
      }
    }
  ]
}